STARLINK-31451          
1 59366U 24060U   26068.53869507  .00000600  00000+0  31326-4 0  9990
2 59366  43.0004 260.3726 0001177 278.2614  81.8104 15.27579905110042
FLOCK 4G-15             
1 62678U 25009BX  26068.71779869  .00012647  00000+0  47575-3 0  9991
2 62678  97.4054 151.1927 0003699 316.8208  43.2740 15.27266411121358
